CCSDS_OMM_VERS,COMMENT,CREATION_DATE,ORIGINATOR,OBJECT_NAME,OBJECT_ID,CENTER_NAME,REF_FRAME,TIME_SYSTEM,MEAN_ELEMENT_THEORY,EPOCH,MEAN_MOTION,ECCENTRICITY,INCLINATION,RA_OF_ASC_NODE,ARG_OF_PERICENTER,MEAN_ANOMALY,EPHEMERIS_TYPE,CLASSIFICATION_TYPE,NORAD_CAT_ID,ELEMENT_SET_NO,REV_AT_EPOCH,BSTAR,MEAN_MOTION_DOT,MEAN_MOTION_DDOT,SEMIMAJOR_AXIS,PERIOD,APOAPSIS,PERIAPSIS,OBJECT_TYPE,RCS_SIZE,COUNTRY_CODE,LAUNCH_DATE,SITE,DECAY_DATE,FILE,GP_ID,TLE_LINE0,TLE_LINE1,TLE_LINE2
2,GENERATED VIA SPACE-TRACK.ORG API,2004-05-28T19:01:35,18 SPCS,JCSAT 2,1990-001B,EARTH,TEME,UTC,SGP4,2002-04-27T09:24:09.550080,1.0027056,0.0001815,0.0173,138.7976,256.678,114.7348,0,U,20402,999,2843,0.0001,-1.77e-06,0,42165.102,1436.114,35794.62,35779.314,PAYLOAD,MEDIUM,JPN,1990-01-01,AFETR,,6676,2638707,0 JCSAT 2,1 20402U 90001B   02117.39177720 -.00000177 +00000-0 +10000-3 0  9995,2 20402 000.0173 138.7976 0001815 256.6780 114.7348 01.00270560028437
2,GENERATED VIA SPACE-TRACK.ORG API,2004-05-28T19:01:38,18 SPCS,JCSAT 2,1990-001B,EARTH,TEME,UTC,SGP4,2002-04-28T16:02:16.150272,1.0027057,0.0001603,0.0266,134.1776,267.5117,209.3076,0,U,20402,999,2844,0.0001,-1.77e-06,0,42165.099,1436.114,35793.723,35780.205,PAYLOAD,MEDIUM,JPN,1990-01-01,AFETR,,6677,2645796,0 JCSAT 2,1 20402U 90001B   02118.66824248 -.00000177 +00000-0 +10000-3 0  9990,2 20402 000.0266 134.1776 0001603 267.5117 209.3076 01.00270570028449
2,GENERATED VIA SPACE-TRACK.ORG API,2004-08-17T15:30:15,18 SPCS,JCSAT 2,1990-001B,EARTH,TEME,UTC,SGP4,2002-04-29T13:58:31.249632,1.00268163,0.0003243,0.0308,82.7026,328.6968,169.6026,0,U,20402,999,2845,0.0001,-1.77e-06,0,42165.774,1436.148,35801.313,35773.964,PAYLOAD,MEDIUM,JPN,1990-01-01,AFETR,,35654,37421943,0 JCSAT 2,1 20402U 90001B   02119.58230613 -.00000177  00000-0  10000-3 0  9999,2 20402 000.0308 082.7026 0003243 328.6968 169.6026 01.00268163 28456
2,GENERATED VIA SPACE-TRACK.ORG API,2004-05-28T19:01:41,18 SPCS,JCSAT 2,1990-001B,EARTH,TEME,UTC,SGP4,2002-04-29T13:58:43.050143,1.00268163,0.0003245,0.0321,97.2371,314.1244,169.6898,0,U,20402,999,2845,0.0001,-1.77e-06,0,42165.774,1436.148,35801.322,35773.956,PAYLOAD,MEDIUM,JPN,1990-01-01,AFETR,,6678,2652870,0 JCSAT 2,1 20402U 90001B   02119.58244271 -.00000177 +00000-0 +10000-3 0  9994,2 20402 000.0321 097.2371 0003245 314.1244 169.6898 01.00268163028451
2,GENERATED VIA SPACE-TRACK.ORG API,2004-05-28T19:01:44,18 SPCS,JCSAT 2,1990-001B,EARTH,TEME,UTC,SGP4,2002-04-30T15:36:22.150367,1.00274118,0.0002503,0.0167,198.4514,196.2848,211.7997,0,U,20402,999,2846,0.0001,-1.76e-06,0,42164.104,1436.063,35796.523,35775.416,PAYLOAD,MEDIUM,JPN,1990-01-01,AFETR,,6679,2659947,0 JCSAT 2,1 20402U 90001B   02120.65025637 -.00000176 +00000-0 +10000-3 0  9996,2 20402 000.0167 198.4514 0002503 196.2848 211.7997 01.00274118028464
2,GENERATED VIA SPACE-TRACK.ORG API,2004-05-28T19:02:05,18 SPCS,JCSAT 2,1990-001B,EARTH,TEME,UTC,SGP4,2002-05-04T20:27:14.950368,1.00270748,0.0003147,0.0125,147.8414,265.0403,270.508,0,U,20402,999,2850,0.0001,-1.75e-06,0,42165.049,1436.111,35800.183,35773.645,PAYLOAD,MEDIUM,JPN,1990-01-01,AFETR,,6686,2694693,0 JCSAT 2,1 20402U 90001B   02124.85225637 -.00000175 +00000-0 +10000-3 0  9993,2 20402 000.0125 147.8414 0003147 265.0403 270.5080 01.00270748028508
2,GENERATED VIA SPACE-TRACK.ORG API,2004-05-28T19:02:17,18 SPCS,JCSAT 2,1990-001B,EARTH,TEME,UTC,SGP4,2002-05-06T12:03:49.650336,1.0027204,0.0002372,0.0484,90.0169,319.1295,150.0338,0,U,20402,999,2852,0.0001,-1.7e-06,0,42164.687,1436.093,35796.553,35776.55,PAYLOAD,MEDIUM,JPN,1990-01-01,AFETR,,6690,2709020,0 JCSAT 2,1 20402U 90001B   02126.50265799 -.00000170 +00000-0 +10000-3 0  9995,2 20402 000.0484 090.0169 0002372 319.1295 150.0338 01.00272040028528
2,GENERATED VIA SPACE-TRACK.ORG API,2004-05-28T19:02:26,18 SPCS,JCSAT 2,1990-001B,EARTH,TEME,UTC,SGP4,2002-05-10T15:32:31.850304,1.0027123,0.0002325,0.0581,88.6874,319.5021,207.2455,0,U,20402,999,2856,0.0001,-1.57e-06,0,42164.914,1436.104,35796.582,35776.976,PAYLOAD,MEDIUM,JPN,1990-01-01,AFETR,,6693,2730612,0 JCSAT 2,1 20402U 90001B   02130.64759086 -.00000157 +00000-0 +10000-3 0  9997,2 20402 000.0581 088.6874 0002325 319.5021 207.2455 01.00271230028560
2,GENERATED VIA SPACE-TRACK.ORG API,2004-05-28T19:02:38,18 SPCS,JCSAT 2,1990-001B,EARTH,TEME,UTC,SGP4,2002-05-13T13:10:12.800928,1.00272458,0.0002228,0.0301,102.1421,291.9636,188.6132,0,U,20402,999,2859,0.0001,-1.53e-06,0,42164.57,1436.087,35795.829,35777.04,PAYLOAD,MEDIUM,JPN,1990-01-01,AFETR,,6697,2759077,0 JCSAT 2,1 20402U 90001B   02133.54875927 -.00000153 +00000-0 +10000-3 0  9998,2 20402 000.0301 102.1421 0002228 291.9636 188.6132 01.00272458028597
2,GENERATED VIA SPACE-TRACK.ORG API,2004-05-28T19:02:44,18 SPCS,JCSAT 2,1990-001B,EARTH,TEME,UTC,SGP4,2002-05-16T10:22:36.880319,1.00271123,0.0002066,0.0419,104.7574,289.925,148.9677,0,U,20402,999,2862,0.0001,-1.58e-06,0,42164.944,1436.106,35795.52,35778.098,PAYLOAD,MEDIUM,JPN,1990-01-01,AFETR,,6699,2773171,0 JCSAT 2,1 20402U 90001B   02136.43237130 -.00000158 +00000-0 +10000-3 0  9992,2 20402 000.0419 104.7574 0002066 289.9250 148.9677 01.00271123028628
2,GENERATED VIA SPACE-TRACK.ORG API,2004-05-28T19:02:59,18 SPCS,JCSAT 2,1990-001B,EARTH,TEME,UTC,SGP4,2002-05-19T08:39:10.033056,1.00270916,0.0002074,0.055,109.6968,282.0994,128.8752,0,U,20402,999,2865,0.0001,-1.67e-06,0,42165.002,1436.109,35795.612,35778.122,PAYLOAD,MEDIUM,JPN,1990-01-01,AFETR,,6704,2808956,0 JCSAT 2,1 20402U 90001B   02139.36053279 -.00000167 +00000-0 +10000-3 0  9997,2 20402 000.0550 109.6968 0002074 282.0994 128.8752 01.00270916028656
2,GENERATED VIA SPACE-TRACK.ORG API,2004-05-28T19:03:05,18 SPCS,JCSAT 2,1990-001B,EARTH,TEME,UTC,SGP4,2002-05-23T09:27:35.481887,1.0027101,0.0001999,0.036,117.1719,269.5195,150.0605,0,U,20402,999,2869,0.0001,-1.7e-06,0,42164.976,1436.108,35795.269,35778.412,PAYLOAD,MEDIUM,JPN,1990-01-01,AFETR,,6706,2823323,0 JCSAT 2,1 20402U 90001B   02143.39416067 -.00000170 +00000-0 +10000-3 0  9997,2 20402 000.0360 117.1719 0001999 269.5195 150.0605 01.00271010028695
2,GENERATED VIA SPACE-TRACK.ORG API,2004-05-28T19:03:29,18 SPCS,JCSAT 2,1990-001B,EARTH,TEME,UTC,SGP4,2002-05-30T07:02:13.788096,1.0027229,0.0001465,0.0495,108.8577,301.9517,96.4004,0,U,20402,999,2876,0.0001,-1.72e-06,0,42164.617,1436.089,35792.659,35780.305,PAYLOAD,MEDIUM,JPN,1990-01-01,AFETR,,6714,2873196,0 JCSAT 2,1 20402U 90001B   02150.29321514 -.00000172 +00000-0 +10000-3 0  9998,2 20402 000.0495 108.8577 0001465 301.9517 096.4004 01.00272290028765
2,GENERATED VIA SPACE-TRACK.ORG API,2004-05-28T19:03:44,18 SPCS,JCSAT 2,1990-001B,EARTH,TEME,UTC,SGP4,2002-06-02T12:02:03.749855,1.00272487,0.0001386,0.0465,99.0185,313.9339,172.3967,0,U,20402,999,2879,0.0001,-1.66e-06,0,42164.562,1436.086,35792.271,35780.583,PAYLOAD,MEDIUM,JPN,1990-01-01,AFETR,,6719,2908483,0 JCSAT 2,1 20402U 90001B   02153.50143229 -.00000166 +00000-0 +10000-3 0  9993,2 20402 000.0465 099.0185 0001386 313.9339 172.3967 01.00272487028798
2,GENERATED VIA SPACE-TRACK.ORG API,2004-05-28T19:03:56,18 SPCS,JCSAT 2,1990-001B,EARTH,TEME,UTC,SGP4,2002-06-06T13:59:54.807936,1.00271147,0.0002109,0.0361,138.0414,320.8698,159.9053,0,U,20402,999,2883,0.0001,-1.54e-06,0,42164.937,1436.106,35795.695,35777.91,PAYLOAD,MEDIUM,JPN,1990-01-01,AFETR,,6723,2929915,0 JCSAT 2,1 20402U 90001B   02157.58327324 -.00000154 +00000-0 +10000-3 0  9992,2 20402 000.0361 138.0414 0002109 320.8698 159.9053 01.00271147028835
2,GENERATED VIA SPACE-TRACK.ORG API,2004-05-28T19:04:05,18 SPCS,JCSAT 2,1990-001B,EARTH,TEME,UTC,SGP4,2002-06-10T11:15:49.478687,1.00269172,0.0001302,0.03,164.2229,300.2843,117.0902,0,U,20402,999,2887,0.0001,-1.5e-06,0,42165.491,1436.134,35792.846,35781.866,PAYLOAD,MEDIUM,JPN,1990-01-01,AFETR,,6726,2951260,0 JCSAT 2,1 20402U 90001B   02161.46932267 -.00000150 +00000-0 +10000-3 0  9998,2 20402 000.0300 164.2229 0001302 300.2843 117.0902 01.00269172028878
2,GENERATED VIA SPACE-TRACK.ORG API,2004-05-28T19:04:14,18 SPCS,JCSAT 2,1990-001B,EARTH,TEME,UTC,SGP4,2002-06-13T19:00:31.349663,1.0091648,0.006406,0.134,132.4952,16.9143,189.5818,0,U,20402,999,2890,0.0,-4.7e-07,0,41984.99,1426.922,35875.811,35337.899,PAYLOAD,MEDIUM,JPN,1990-01-01,AFETR,,6729,2966188,0 JCSAT 2,1 20402U 90001B   02164.79202951 -.00000047 +00000-0 +00000-0 0  9998,2 20402 000.1340 132.4952 0064060 016.9143 189.5818 01.00916480028902
2,GENERATED VIA SPACE-TRACK.ORG API,2004-05-28T19:04:17,18 SPCS,JCSAT 2,1990-001B,EARTH,TEME,UTC,SGP4,2002-06-14T11:10:08.150304,0.99967902,0.0001009,0.0762,106.7859,338.654,135.7826,0,U,20402,999,2891,0.0,-2.41e-06,0,42250.164,1440.462,35876.292,35867.766,PAYLOAD,MEDIUM,JPN,1990-01-01,AFETR,,6730,2973282,0 JCSAT 2,1 20402U 90001B   02165.46537211 -.00000241 +00000-0 +00000-0 0  9999,2 20402 000.0762 106.7859 0001009 338.6540 135.7826 00.99967902028913
2,GENERATED VIA SPACE-TRACK.ORG API,2004-05-28T19:04:29,18 SPCS,JCSAT 2,1990-001B,EARTH,TEME,UTC,SGP4,2002-06-17T07:28:43.966271,0.99967002,9.68e-05,0.0826,105.1602,340.5121,79.8839,0,U,20402,999,2894,0.0,-2.71e-06,0,42250.417,1440.475,35876.372,35868.192,PAYLOAD,MEDIUM,JPN,1990-01-01,AFETR,,6734,2994432,0 JCSAT 2,1 20402U 90001B   02168.31161998 -.00000271 +00000-0 +00000-0 0  9994,2 20402 000.0826 105.1602 0000968 340.5121 079.8839 00.99967002028949
2,GENERATED VIA SPACE-TRACK.ORG API,2004-05-28T19:04:32,18 SPCS,JCSAT 2,1990-001B,EARTH,TEME,UTC,SGP4,2002-06-18T11:03:29.103263,0.99966593,9.62e-05,0.0844,104.395,341.4886,133.23,0,U,20402,999,2895,0.0,-2.8e-06,0,42250.532,1440.481,35876.462,35868.333,PAYLOAD,MEDIUM,JPN,1990-01-01,AFETR,,6735,3001526,0 JCSAT 2,1 20402U 90001B   02169.46075351 -.00000280 +00000-0 +00000-0 0  9998,2 20402 000.0844 104.3950 0000962 341.4886 133.2300 00.99966593028951
